{
    "links": {
        "self": "http://www.neowsapp.com/rest/v1/neo/3545480?api_key=iIulBulltgU6a56xZRHN4H3l9WmuAYTsLGpBGhQ2"
    },
    "id": "3545480",
    "neo_reference_id": "3545480",
    "name": "(2010 RV3)",
    "designation": "2010 RV3",
    "nasa_jpl_url": "http://ssd.jpl.nasa.gov/sbdb.cgi?sstr=3545480",
    "absolute_magnitude_h": 23.168,
    "estimated_diameter": {
        "kilometers": {
            "estimated_diameter_min": 0.0617952334,
            "estimated_diameter_max": 0.1381783425
        },
        "meters": {
            "estimated_diameter_min": 61.7952333579,
            "estimated_diameter_max": 138.1783424738
        },
        "miles": {
            "estimated_diameter_min": 0.0383977659,
            "estimated_diameter_max": 0.0858600148
        },
        "feet": {
            "estimated_diameter_min": 202.74027341,
            "estimated_diameter_max": 453.3410331216
        }
    },
    "is_potentially_hazardous_asteroid": false,
    "close_approach_data": [
        {
            "close_approach_date": "2010-09-19",
            "close_approach_date_full": "2010-Sep-19 17:04",
            "epoch_date_close_approach": 1284915840000,
            "relative_velocity": {
                "kilometers_per_second": "28.6765050288",
                "kilometers_per_hour": "103235.4181036616",
                "miles_per_hour": "64146.4740989113"
            },
            "miss_distance": {
                "astronomical": "0.095544965",
                "lunar": "37.166991385",
                "kilometers": "14293323.25322455",
                "miles": "8881459.23081679"
            },
            "orbiting_body": "Earth"
        },
        {
            "close_approach_date": "2010-10-06",
            "close_approach_date_full": "2010-Oct-06 21:07",
            "epoch_date_close_approach": 1286399220000,
            "relative_velocity": {
                "kilometers_per_second": "39.8140488804",
                "kilometers_per_hour": "143330.5759695242",
                "miles_per_hour": "89060.0459406191"
            },
            "miss_distance": {
                "astronomical": "0.1172627191",
                "lunar": "45.6151977299",
                "kilometers": "17542253.007768317",
                "miles": "10900250.5676920946"
            },
            "orbiting_body": "Venus"
        }
    ],
    "orbital_data": {
        "orbit_id": "7",
        "orbit_determination_date": "2017-04-06 08:56:54",
        "first_observation_date": "2010-09-02",
        "last_observation_date": "2010-09-03",
        "data_arc_in_days": 1,
        "observations_used": 12,
        "orbit_uncertainty": "9",
        "minimum_orbit_intersection": ".00682727",
        "jupiter_tisserand_invariant": "3.025",
        "epoch_osculation": "2455442.5",
        "eccentricity": ".879210839248953",
        "semi_major_axis": "2.150895065012327",
        "inclination": "8.802147601979456",
        "ascending_node_longitude": "349.8716357289094",
        "orbital_period": "1152.198383423947",
        "perihelion_distance": ".2598048097664075",
        "perihelion_argument": "128.3780625109467",
        "aphelion_distance": "4.041985320258246",
        "perihelion_time": "2455501.230114040130",
        "mean_anomaly": "341.6499993763076",
        "mean_motion": ".3124461943178576",
        "equinox": "J2000",
        "orbit_class": {
            "orbit_class_type": "APO",
            "orbit_class_description": "Near-Earth asteroid orbits which cross the Earth’s orbit similar to that of 1862 Apollo",
            "orbit_class_range": "a (semi-major axis) > 1.0 AU; q (perihelion) < 1.017 AU"
        }
    },
    "is_sentry_object": false
}